{
    "links": {
        "self": "http://www.neowsapp.com/rest/v1/neo/3785777?api_key=iIulBulltgU6a56xZRHN4H3l9WmuAYTsLGpBGhQ2"
    },
    "id": "3785777",
    "neo_reference_id": "3785777",
    "name": "(2017 TQ4)",
    "designation": "2017 TQ4",
    "nasa_jpl_url": "http://ssd.jpl.nasa.gov/sbdb.cgi?sstr=3785777",
    "absolute_magnitude_h": 25.0,
    "estimated_diameter": {
        "kilometers": {
            "estimated_diameter_min": 0.02658,
            "estimated_diameter_max": 0.0594346868
        },
        "meters": {
            "estimated_diameter_min": 26.58,
            "estimated_diameter_max": 59.4346868419
        },
        "miles": {
            "estimated_diameter_min": 0.0165160412,
            "estimated_diameter_max": 0.0369309908
        },
        "feet": {
            "estimated_diameter_min": 87.2047272,
            "estimated_diameter_max": 194.9956979785
        }
    },
    "is_potentially_hazardous_asteroid": false,
    "close_approach_data": [
        {
            "close_approach_date": "2017-10-22",
            "close_approach_date_full": "2017-Oct-22 17:11",
            "epoch_date_close_approach": 1508692260000,
            "relative_velocity": {
                "kilometers_per_second": "10.9581860661",
                "kilometers_per_hour": "39449.4698377832",
                "miles_per_hour": "24512.3664111493"
            },
            "miss_distance": {
                "astronomical": "0.0285935953",
                "lunar": "11.1229085717",
                "kilometers": "4277540.952522011",
                "miles": "2657940.6975493118"
            },
            "orbiting_body": "Earth"
        },
        {
            "close_approach_date": "2097-09-27",
            "close_approach_date_full": "2097-Sep-27 23:14",
            "epoch_date_close_approach": 4031162040000,
            "relative_velocity": {
                "kilometers_per_second": "19.8888860732",
                "kilometers_per_hour": "71599.9898634509",
                "miles_per_hour": "44489.4492570981"
            },
            "miss_distance": {
                "astronomical": "0.30338023",
                "lunar": "118.01490947",
                "kilometers": "45385036.2081101",
                "miles": "28200953.80411538"
            },
            "orbiting_body": "Earth"
        }
    ],
    "orbital_data": {
        "orbit_id": "4",
        "orbit_determination_date": "2017-10-24 06:21:42",
        "first_observation_date": "2017-10-12",
        "last_observation_date": "2017-10-23",
        "data_arc_in_days": 11,
        "observations_used": 60,
        "orbit_uncertainty": "8",
        "minimum_orbit_intersection": ".0229458",
        "jupiter_tisserand_invariant": "3.267",
        "epoch_osculation": "2458040.5",
        "eccentricity": ".6090183183585041",
        "semi_major_axis": "2.367053956154927",
        "inclination": "2.475026214882481",
        "ascending_node_longitude": "244.4095473873267",
        "orbital_period": "1330.180764576422",
        "perihelion_distance": ".9254747363136092",
        "perihelion_argument": "182.4053325106627",
        "aphelion_distance": "3.808633175996245",
        "perihelion_time": "2458076.855792505130",
        "mean_anomaly": "350.1606716542661",
        "mean_motion": ".2706399081891979",
        "equinox": "J2000",
        "orbit_class": {
            "orbit_class_type": "APO",
            "orbit_class_description": "Near-Earth asteroid orbits which cross the Earth’s orbit similar to that of 1862 Apollo",
            "orbit_class_range": "a (semi-major axis) > 1.0 AU; q (perihelion) < 1.017 AU"
        }
    },
    "is_sentry_object": false
}